ORBCOMM FM37            
1 33064U 08031E   25029.94599521  .00003566  00000+0  50751-3 0  9990
2 33064  48.4392 280.4402 0005881 142.2983 231.4170 14.78832946893582
ORBCOMM FM40            
1 33065U 08031F   25029.92301156  .00003910  00000+0  52861-3 0  9991
2 33065  48.4405 266.7773 0007378 153.3911 220.1655 14.80813726893663
VESSELSAT 1             
1 37840U 11058C   25029.80639567  .00000480  00000+0  11731-3 0  9996
2 37840  19.9598 211.2049 0013731 104.3895 255.8034 14.11301249686732
ORBCOMM FM109           
1 40086U 14040A   25029.48582422  .00002046  00000+0  48000-3 0  9996
2 40086  47.0039 311.1741 0001459  45.0382 315.0621 14.57744556560829
ORBCOMM FM107           
1 40087U 14040B   25029.17776500  .00001840  00000+0  43497-3 0  9991
2 40087  47.0057 313.6385 0001509 349.3013  10.7840 14.57806545560850
ORBCOMM FM106           
1 40088U 14040C   25029.70499126  .00002869  00000+0  51739-3 0  9997
2 40088  47.0590 144.2520 0016761 147.8133 212.3784 14.68797645563113
ORBCOMM FM111           
1 40089U 14040D   25029.96062952  .00006276  00000+0  74619-3 0  9997
2 40089  47.0030  11.5277 0030983 252.8890 106.8613 14.84961327569670
ORBCOMM FM104           
1 40090U 14040E   25029.90757243  .00001743  00000+0  42736-3 0  9996
2 40090  47.0060 342.1612 0017246 293.5783  66.3291 14.56260205560467
